GLOBALSTAR M023         
1 25621U 99004A   25088.96820409 -.00000014  00000+0  49737-3 0  9997
2 25621  52.0107 294.6684 0009129 315.9702 188.6400 12.62504542205724
GLOBALSTAR M040         
1 25622U 99004B   25088.88317353 -.00000038  00000+0  37017-3 0  9992
2 25622  51.9916 298.9632 0000729 151.3939 219.7654 12.62006224205240
GLOBALSTAR M036         
1 25623U 99004C   25088.93198943 -.00000058  00000+0  36085-3 0  9997
2 25623  51.9952  89.2183 0011030 261.1644 110.5110 11.86592320169575
GLOBALSTAR M038         
1 25624U 99004D   25088.96421649 -.00000053  00000+0  34419-3 0  9997
2 25624  51.9975 299.7272 0001061 231.5340 269.9469 12.32523557192609
GLOBALSTAR M022         
1 25649U 99012A   25088.88463856 -.00000055  00000+0  38216-3 0  9991
2 25649  52.0021 146.4826 0002261  25.2227 148.3990 12.02497975166834
GLOBALSTAR M041         
1 25650U 99012B   25088.95104473 -.00000064  00000+0  27785-3 0  9997
2 25650  52.0049  25.3374 0001626 144.1926 215.9020 11.96669695168794
GLOBALSTAR M046         
1 25651U 99012C   25088.78052567  .00000071  00000+0  17641-2 0  9991
2 25651  52.0036  99.7955 0002333  95.4580  75.9480 12.09408463174050
GLOBALSTAR M037         
1 25652U 99012D   25088.71172632 -.00000050  00000+0  29930-3 0  9994
2 25652  52.0005  66.0923 0002166  18.0588 153.9618 12.62441065201237
